{
  "type": "FeatureCollection",
  "features": [
    {
      "type": "Feature",
      "properties": {
        "norad_id": 40938,
        "name": "BEIDOU-3S IGSO-2S (C56)",
        "group": "beidou",
        "lat": -26.136689535537815,
        "lon": 105.66046811843009,
        "alt_km": 35561.9070863213,
        "timestamp": "2025-12-18T19:29:52.809568+00:00",
        "meta_object_name": "BEIDOU-3S IGSO-2S (C56)",
        "meta_object_id": "2015-053A",
        "meta_epoch": "2025-12-17T17:12:22.751136",
        "meta_mean_motion": 1.00269192,
        "meta_eccentricity": 0.00604784,
        "meta_inclination": 49.5029,
        "meta_ra_of_asc_node": 260.9465,
        "meta_arg_of_pericenter": 188.653,
        "meta_mean_anomaly": 351.012,
        "meta_ephemeris_type": 0,
        "meta_classification_type": "U",
        "meta_norad_cat_id": 40938,
        "meta_element_set_no": 999,
        "meta_rev_at_epoch": 3753,
        "meta_bstar": 0,
        "meta_mean_motion_dot": -1.26e-06,
        "meta_mean_motion_ddot": 0,
        "tle_line1": "1 40938U 15053A   25351.71692999 -.00000126  00000+0  00000+0 0  9994",
        "tle_line2": "2 40938  49.5029 260.9465 0060478 188.6530 351.0120  1.00269192 37533"
      },
      "geometry": {
        "type": "Point",
        "coordinates": [
          105.66046811843009,
          -26.136689535537815
        ]
      }
    },
    {
      "type": "Feature",
      "properties": {
        "norad_id": 41434,
        "name": "BEIDOU-2 IGSO-6 (C13)",
        "group": "beidou",
        "lat": 56.012739977757235,
        "lon": 98.84462190548909,
        "alt_km": 36011.51529296594,
        "timestamp": "2025-12-18T19:29:52.809587+00:00",
        "meta_object_name": "BEIDOU-2 IGSO-6 (C13)",
        "meta_object_id": "2016-021A",
        "meta_epoch": "2025-12-11T15:29:12.615360",
        "meta_mean_motion": 1.00293077,
        "meta_eccentricity": 0.00608616,
        "meta_inclination": 59.9644,
        "meta_ra_of_asc_node": 39.9082,
        "meta_arg_of_pericenter": 229.9753,
        "meta_mean_anomaly": 135.9177,
        "meta_ephemeris_type": 0,
        "meta_classification_type": "U",
        "meta_norad_cat_id": 41434,
        "meta_element_set_no": 999,
        "meta_rev_at_epoch": 3560,
        "meta_bstar": 0,
        "meta_mean_motion_dot": -1.62e-06,
        "meta_mean_motion_ddot": 0,
        "tle_line1": "1 41434U 16021A   25345.64528490 -.00000162  00000+0  00000+0 0  9991",
        "tle_line2": "2 41434  59.9644  39.9082 0060861 229.9753 135.9177  1.00293077 35600"
      },
      "geometry": {
        "type": "Point",
        "coordinates": [
          98.84462190548909,
          56.012739977757235
        ]
      }
    },
    {
      "type": "Feature",
      "properties": {
        "norad_id": 41586,
        "name": "BEIDOU-2 G7 (C03)",
        "group": "beidou",
        "lat": 1.5932083869874798,
        "lon": 130.6230923133888,
        "alt_km": 35774.696566347986,
        "timestamp": "2025-12-18T19:29:52.809601+00:00",
        "meta_object_name": "BEIDOU-2 G7 (C03)",
        "meta_object_id": "2016-037A",
        "meta_epoch": "2025-12-18T01:50:09.134304",
        "meta_mean_motion": 1.00272738,
        "meta_eccentricity": 0.0005106,
        "meta_inclination": 1.7698,
        "meta_ra_of_asc_node": 67.8228,
        "meta_arg_of_pericenter": 3.2684,
        "meta_mean_anomaly": 153.8419,
        "meta_ephemeris_type": 0,
        "meta_classification_type": "U",
        "meta_norad_cat_id": 41586,
        "meta_element_set_no": 999,
        "meta_rev_at_epoch": 507,
        "meta_bstar": 0,
        "meta_mean_motion_dot": -3.3e-06,
        "meta_mean_motion_ddot": 0,
        "tle_line1": "1 41586U 16037A   25352.07649461 -.00000330  00000+0  00000+0 0  9990",
        "tle_line2": "2 41586   1.7698  67.8228 0005106   3.2684 153.8419  1.00272738  5078"
      },
      "geometry": {
        "type": "Point",
        "coordinates": [
          130.6230923133888,
          1.5932083869874798
        ]
      }
    },
    {
      "type": "Feature",
      "properties": {
        "norad_id": 43001,
        "name": "BEIDOU-3 M1 (C19)",
        "group": "beidou",
        "lat": 48.91414430124917,
        "lon": 118.29004701463327,
        "alt_km": 21536.0838835882,
        "timestamp": "2025-12-18T19:29:52.809613+00:00",
        "meta_object_name": "BEIDOU-3 M1 (C19)",
        "meta_object_id": "2017-069A",
        "meta_epoch": "2025-12-17T15:24:44.433216",
        "meta_mean_motion": 1.86231367,
        "meta_eccentricity": 0.00094147,
        "meta_inclination": 56.5313,
        "meta_ra_of_asc_node": 69.0717,
        "meta_arg_of_pericenter": 302.6799,
        "meta_mean_anomaly": 57.2556,
        "meta_ephemeris_type": 0,
        "meta_classification_type": "U",
        "meta_norad_cat_id": 43001,
        "meta_element_set_no": 999,
        "meta_rev_at_epoch": 5522,
        "meta_bstar": 0,
        "meta_mean_motion_dot": -7e-07,
        "meta_mean_motion_ddot": 0,
        "tle_line1": "1 43001U 17069A   25351.64218094 -.00000070  00000+0  00000+0 0  9997",
        "tle_line2": "2 43001  56.5313  69.0717 0009414 302.6799  57.2556  1.86231367 55228"
      },
      "geometry": {
        "type": "Point",
        "coordinates": [
          118.29004701463327,
          48.91414430124917
        ]
      }
    },
    {
      "type": "Feature",
      "properties": {
        "norad_id": 43002,
        "name": "BEIDOU-3 M2 (C20)",
        "group": "beidou",
        "lat": 53.3537075703585,
        "lon": -173.51793459772713,
        "alt_km": 21534.592756492002,
        "timestamp": "2025-12-18T19:29:52.809628+00:00",
        "meta_object_name": "BEIDOU-3 M2 (C20)",
        "meta_object_id": "2017-069B",
        "meta_epoch": "2025-12-18T02:49:13.033344",
        "meta_mean_motion": 1.86230976,
        "meta_eccentricity": 0.00064664,
        "meta_inclination": 56.5314,
        "meta_ra_of_asc_node": 69.092,
        "meta_arg_of_pericenter": 330.9004,
        "meta_mean_anomaly": 29.0919,
        "meta_ephemeris_type": 0,
        "meta_classification_type": "U",
        "meta_norad_cat_id": 43002,
        "meta_element_set_no": 999,
        "meta_rev_at_epoch": 5522,
        "meta_bstar": 0,
        "meta_mean_motion_dot": -6.6e-07,
        "meta_mean_motion_ddot": 0,
        "tle_line1": "1 43002U 17069B   25352.11751196 -.00000066  00000+0  00000+0 0  9991",
        "tle_line2": "2 43002  56.5314  69.0920 0006466 330.9004  29.0919  1.86230976 55228"
      },
      "geometry": {
        "type": "Point",
        "coordinates": [
          -173.51793459772713,
          53.3537075703585
        ]
      }
    },
    {
      "type": "Feature",
      "properties": {
        "norad_id": 43107,
        "name": "BEIDOU-3 M7 (C27)",
        "group": "beidou",
        "lat": -53.667279147047324,
        "lon": -127.35130425947327,
        "alt_km": 21540.39438599372,
        "timestamp": "2025-12-18T19:29:52.809640+00:00",
        "meta_object_name": "BEIDOU-3 M7 (C27)",
        "meta_object_id": "2018-003A",
        "meta_epoch": "2025-12-17T07:45:51.117120",
        "meta_mean_motion": 1.86232475,
        "meta_eccentricity": 0.00027428,
        "meta_inclination": 54.4925,
        "meta_ra_of_asc_node": 308.6547,
        "meta_arg_of_pericenter": 69.5375,
        "meta_mean_anomaly": 290.4783,
        "meta_ephemeris_type": 0,
        "meta_classification_type": "U",
        "meta_norad_cat_id": 43107,
        "meta_element_set_no": 999,
        "meta_rev_at_epoch": 5396,
        "meta_bstar": 0,
        "meta_mean_motion_dot": -9.2e-07,
        "meta_mean_motion_ddot": 0,
        "tle_line1": "1 43107U 18003A   25351.32350830 -.00000092  00000+0  00000+0 0  9997",
        "tle_line2": "2 43107  54.4925 308.6547 0002742  69.5375 290.4783  1.86232475 53963"
      },
      "geometry": {
        "type": "Point",
        "coordinates": [
          -127.35130425947327,
          -53.667279147047324
        ]
      }
    },
    {
      "type": "Feature",
      "properties": {
        "norad_id": 43108,
        "name": "BEIDOU-3 M8 (C28)",
        "group": "beidou",
        "lat": -35.04339996800892,
        "lon": -81.46876901694066,
        "alt_km": 21522.196279526397,
        "timestamp": "2025-12-18T19:29:52.809650+00:00",
        "meta_object_name": "BEIDOU-3 M8 (C28)",
        "meta_object_id": "2018-003B",
        "meta_epoch": "2025-12-17T06:26:34.084320",
        "meta_mean_motion": 1.8623095,
        "meta_eccentricity": 0.00046498,
        "meta_inclination": 54.4854,
        "meta_ra_of_asc_node": 308.6394,
        "meta_arg_of_pericenter": 276.4476,
        "meta_mean_anomaly": 83.4857,
        "meta_ephemeris_type": 0,
        "meta_classification_type": "U",
        "meta_norad_cat_id": 43108,
        "meta_element_set_no": 999,
        "meta_rev_at_epoch": 5397,
        "meta_bstar": 0,
        "meta_mean_motion_dot": -9.2e-07,
        "meta_mean_motion_ddot": 0,
        "tle_line1": "1 43108U 18003B   25351.26845005 -.00000092  00000+0  00000+0 0  9994",
        "tle_line2": "2 43108  54.4854 308.6394 0004649 276.4476  83.4857  1.86230950 53973"
      },
      "geometry": {
        "type": "Point",
        "coordinates": [
          -81.46876901694066,
          -35.04339996800892
        ]
      }
    }
  ]
}